{"type": "FeatureCollection", "features": [ {"type": "Feature", "properties": {"norad_id": 29808, "name": "FENGYUN 1C DEB", "group": "fengyun-1c-debris", "lat": 80.76229235791453, "lon": 161.2021366778196, "alt_km": 481.43458774542614, "timestamp": "2025-12-11T15:53:39.813896+00:00", "meta": {"OBJECT_NAME": "FENGYUN 1C DEB", "OBJECT_ID": "1999-025DA", "EPOCH": "2025-12-11T06:35:13.120224", "MEAN_MOTION": 15.20919703, "ECCENTRICITY": 0.0018654, "INCLINATION": 99.0129, "RA_OF_ASC_NODE": 263.3341, "ARG_OF_PERICENTER": 94.5462, "MEAN_ANOMALY": 35.0744, "EPHEMERIS_TYPE": 0, "CLASSIFICATION_TYPE": "U", "NORAD_CAT_ID": 29808, "ELEMENT_SET_NO": 999, "REV_AT_EPOCH": 98203, "BSTAR": 0.025761616, "MEAN_MOTION_DOT": 0.00613482, "MEAN_MOTION_DDOT": 0}, "tle": {"line1": "1 29808U 99025DA  25345.27445741  .00613482  00000+0  25762-1 0  9991", "line2": "2 29808  99.0129 263.3341 0018654  94.5462  35.0744 15.20919703982037"}}, "geometry": {"type": "Point", "coordinates": [161.2021366778196, 80.76229235791453]}}, {"type": "Feature", "properties": {"norad_id": 29809, "name": "FENGYUN 1C DEB", "group": "fengyun-1c-debris", "lat": -57.71764433981483, "lon": -36.551197908088376, "alt_km": 692.3779482633645, "timestamp": "2025-12-11T15:53:39.813906+00:00", "meta": {"OBJECT_NAME": "FENGYUN 1C DEB", "OBJECT_ID": "1999-025DB", "EPOCH": "2025-12-11T04:36:40.415616", "MEAN_MOTION": 14.46583906, "ECCENTRICITY": 0.01162204, "INCLINATION": 98.86, "RA_OF_ASC_NODE": 308.6627, "ARG_OF_PERICENTER": 354.6464, "MEAN_ANOMALY": 20.7326, "EPHEMERIS_TYPE": 0, "CLASSIFICATION_TYPE": "U", "NORAD_CAT_ID": 29809, "ELEMENT_SET_NO": 999, "REV_AT_EPOCH": 99445, "BSTAR": 0.00060738412, "MEAN_MOTION_DOT": 2.329e-05, "MEAN_MOTION_DDOT": 0}, "tle": {"line1": "1 29809U 99025DB  25345.19213444  .00002329  00000+0  60738-3 0  9992", "line2": "2 29809  98.8600 308.6627 0116220 354.6464  20.7326 14.46583906994454"}}, "geometry": {"type": "Point", "coordinates": [-36.551197908088376, -57.71764433981483]}}, {"type": "Feature", "properties": {"norad_id": 29810, "name": "FENGYUN 1C DEB", "group": "fengyun-1c-debris", "lat": 32.85749573470363, "lon": 16.412301602447087, "alt_km": 745.4531809858099, "timestamp": "2025-12-11T15:53:39.813916+00:00", "meta": {"OBJECT_NAME": "FENGYUN 1C DEB", "OBJECT_ID": "1999-025DC", "EPOCH": "2025-12-11T02:34:54.537888", "MEAN_MOTION": 14.29126187, "ECCENTRICITY": 0.00670115, "INCLINATION": 99.2068, "RA_OF_ASC_NODE": 21.8399, "ARG_OF_PERICENTER": 23.6764, "MEAN_ANOMALY": 37.4027, "EPHEMERIS_TYPE": 0, "CLASSIFICATION_TYPE": "U", "NORAD_CAT_ID": 29810, "ELEMENT_SET_NO": 999, "REV_AT_EPOCH": 98354, "BSTAR": 0.00037456243, "MEAN_MOTION_DOT": 9.24e-06, "MEAN_MOTION_DDOT": 0}, "tle": {"line1": "1 29810U 99025DC  25345.10757567  .00000924  00000+0  37456-3 0  9994", "line2": "2 29810  99.2068  21.8399 0067011  23.6764  37.4027 14.29126187983544"}}, "geometry": {"type": "Point", "coordinates": [16.412301602447087, 32.85749573470363]}}, {"type": "Feature", "properties": {"norad_id": 29812, "name": "FENGYUN 1C DEB", "group": "fengyun-1c-debris", "lat": 17.709420268463663, "lon": 171.90049942718213, "alt_km": 815.1748069565601, "timestamp": "2025-12-11T15:53:39.813927+00:00", "meta": {"OBJECT_NAME": "FENGYUN 1C DEB", "OBJECT_ID": "1999-025DE", "EPOCH": "2025-12-07T01:05:47.261760", "MEAN_MOTION": 14.01959129, "ECCENTRICITY": 0.01444592, "INCLINATION": 98.3498, "RA_OF_ASC_NODE": 170.3581, "ARG_OF_PERICENTER": 343.8427, "MEAN_ANOMALY": 145.6696, "EPHEMERIS_TYPE": 0, "CLASSIFICATION_TYPE": "U", "NORAD_CAT_ID": 29812, "ELEMENT_SET_NO": 999, "REV_AT_EPOCH": 96092, "BSTAR": 0.0016935691, "MEAN_MOTION_DOT": 2.789e-05, "MEAN_MOTION_DDOT": 0}, "tle": {"line1": "1 29812U 99025DE  25341.04568590  .00002789  00000+0  16936-2 0  9991", "line2": "2 29812  98.3498 170.3581 0144459 343.8427 145.6696 14.01959129960922"}}, "geometry": {"type": "Point", "coordinates": [171.90049942718213, 17.709420268463663]}}, {"type": "Feature", "properties": {"norad_id": 29813, "name": "FENGYUN 1C DEB", "group": "fengyun-1c-debris", "lat": -22.12519810885758, "lon": 9.136249917645799, "alt_km": 869.7842586791385, "timestamp": "2025-12-11T15:53:39.813937+00:00", "meta": {"OBJECT_NAME": "FENGYUN 1C DEB", "OBJECT_ID": "1999-025DF", "EPOCH": "2025-12-11T07:34:23.954592", "MEAN_MOTION": 14.0945061, "ECCENTRICITY": 0.00117835, "INCLINATION": 98.7276, "RA_OF_ASC_NODE": 5.2196, "ARG_OF_PERICENTER": 226.2746, "MEAN_ANOMALY": 153.0741, "EPHEMERIS_TYPE": 0, "CLASSIFICATION_TYPE": "U", "NORAD_CAT_ID": 29813, "ELEMENT_SET_NO": 999, "REV_AT_EPOCH": 97240, "BSTAR": 5.9920088e-05, "MEAN_MOTION_DOT": 6.2e-07, "MEAN_MOTION_DDOT": 0}, "tle": {"line1": "1 29813U 99025DF  25345.31555503  .00000062  00000+0  59920-4 0  9990", "line2": "2 29813  98.7276   5.2196 0011783 226.2746 153.0741 14.09450610972409"}}, "geometry": {"type": "Point", "coordinates": [9.136249917645799, -22.12519810885758]}}, {"type": "Feature", "properties": {"norad_id": 29815, "name": "FENGYUN 1C DEB", "group": "fengyun-1c-debris", "lat": 74.42580782327038, "lon": -155.25672374647243, "alt_km": 567.2931003732347, "timestamp": "2025-12-11T15:53:39.813947+00:00", "meta": {"OBJECT_NAME": "FENGYUN 1C DEB", "OBJECT_ID": "1999-025DH", "EPOCH": "2025-12-10T18:05:45.224160", "MEAN_MOTION": 14.63692104, "ECCENTRICITY": 0.01839204, "INCLINATION": 98.0561, "RA_OF_ASC_NODE": 353.3138, "ARG_OF_PERICENTER": 141.4335, "MEAN_ANOMALY": 220.0174, "EPHEMERIS_TYPE": 0, "CLASSIFICATION_TYPE": "U", "NORAD_CAT_ID": 29815, "ELEMENT_SET_NO": 999, "REV_AT_EPOCH": 99826, "BSTAR": 0.00072661857, "MEAN_MOTION_DOT": 4.786e-05, "MEAN_MOTION_DDOT": 0}, "tle": {"line1": "1 29815U 99025DH  25344.75399565  .00004786  00000+0  72662-3 0  9997", "line2": "2 29815  98.0561 353.3138 0183920 141.4335 220.0174 14.63692104998262"}}, "geometry": {"type": "Point", "coordinates": [-155.25672374647243, 74.42580782327038]}}, {"type": "Feature", "properties": {"norad_id": 29816, "name": "FENGYUN 1C DEB", "group": "fengyun-1c-debris", "lat": -13.258825645992623, "lon": -152.26528136450037, "alt_km": 913.2284210546723, "timestamp": "2025-12-11T15:53:39.813957+00:00", "meta": {"OBJECT_NAME": "FENGYUN 1C DEB", "OBJECT_ID": "1999-025DJ", "EPOCH": "2025-12-10T03:57:24.704064", "MEAN_MOTION": 14.44252892, "ECCENTRICITY": 0.02377396, "INCLINATION": 98.9928, "RA_OF_ASC_NODE": 204.0122, "ARG_OF_PERICENTER": 184.7969, "MEAN_ANOMALY": 300.2067, "EPHEMERIS_TYPE": 0, "CLASSIFICATION_TYPE": "U", "NORAD_CAT_ID": 29816, "ELEMENT_SET_NO": 999, "REV_AT_EPOCH": 98150, "BSTAR": 0.0013644314, "MEAN_MOTION_DOT": 6.573e-05, "MEAN_MOTION_DDOT": 0}, "tle": {"line1": "1 29816U 99025DJ  25344.16486926  .00006573  00000+0  13644-2 0  9991", "line2": "2 29816  98.9928 204.0122 0237739 184.7969 300.2067 14.44252892981501"}}, "geometry": {"type": "Point", "coordinates": [-152.26528136450037, -13.258825645992623]}}, {"type": "Feature", "properties": {"norad_id": 29817, "name": "FENGYUN 1C DEB", "group": "fengyun-1c-debris", "lat": 41.589677257156474, "lon": -32.77242062030171, "alt_km": 833.2970183954512, "timestamp": "2025-12-11T15:53:39.813967+00:00", "meta": {"OBJECT_NAME": "FENGYUN 1C DEB", "OBJECT_ID": "1999-025DK", "EPOCH": "2025-12-11T05:36:37.249344", "MEAN_MOTION": 14.14249131, "ECCENTRICITY": 0.00123565, "INCLINATION": 98.5574, "RA_OF_ASC_NODE": 334.4968, "ARG_OF_PERICENTER": 19.7286, "MEAN_ANOMALY": 2.0581, "EPHEMERIS_TYPE": 0, "CLASSIFICATION_TYPE": "U", "NORAD_CAT_ID": 29817, "ELEMENT_SET_NO": 999, "REV_AT_EPOCH": 97374, "BSTAR": 0.00047352667, "MEAN_MOTION_DOT": 8.63e-06, "MEAN_MOTION_DDOT": 0}, "tle": {"line1": "1 29817U 99025DK  25345.23376446  .00000863  00000+0  47353-3 0  9997", "line2": "2 29817  98.5574 334.4968 0012356  19.7286   2.0581 14.14249131973740"}}, "geometry": {"type": "Point", "coordinates": [-32.77242062030171, 41.589677257156474]}}, {"type": "Feature", "properties": {"norad_id": 29818, "name": "FENGYUN 1C DEB", "group": "fengyun-1c-debris", "lat": 4.064808457221983, "lon": 43.64333707777252, "alt_km": 950.4545186249588, "timestamp": "2025-12-11T15:53:39.813977+00:00", "meta": {"OBJECT_NAME": "FENGYUN 1C DEB", "OBJECT_ID": "1999-025DL", "EPOCH": "2025-12-11T07:03:35.767872", "MEAN_MOTION": 14.04499892, "ECCENTRICITY": 0.01153622, "INCLINATION": 98.7213, "RA_OF_ASC_NODE": 222.6647, "ARG_OF_PERICENTER": 29.9007, "MEAN_ANOMALY": 84.9788, "EPHEMERIS_TYPE": 0, "CLASSIFICATION_TYPE": "U", "NORAD_CAT_ID": 29818, "ELEMENT_SET_NO": 999, "REV_AT_EPOCH": 96789, "BSTAR": 0.00024144507, "MEAN_MOTION_DOT": 3.67e-06, "MEAN_MOTION_DDOT": 0}, "tle": {"line1": "1 29818U 99025DL  25345.29416398  .00000367  00000+0  24145-3 0  9998", "line2": "2 29818  98.7213 222.6647 0115362  29.9007  84.9788 14.04499892967897"}}, "geometry": {"type": "Point", "coordinates": [43.64333707777252, 4.064808457221983]}}, {"type": "Feature", "properties": {"norad_id": 29819, "name": "FENGYUN 1C DEB", "group": "fengyun-1c-debris", "lat": -63.96951065092611, "lon": -12.210839738564234, "alt_km": 991.1171974192166, "timestamp": "2025-12-11T15:53:39.813987+00:00", "meta": {"OBJECT_NAME": "FENGYUN 1C DEB", "OBJECT_ID": "1999-025DM", "EPOCH": "2025-12-10T11:39:02.656224", "MEAN_MOTION": 14.02190868, "ECCENTRICITY": 0.0191496, "INCLINATION": 98.7315, "RA_OF_ASC_NODE": 328.3204, "ARG_OF_PERICENTER": 73.3597, "MEAN_ANOMALY": 45.7041, "EPHEMERIS_TYPE": 0, "CLASSIFICATION_TYPE": "U", "NORAD_CAT_ID": 29819, "ELEMENT_SET_NO": 999, "REV_AT_EPOCH": 96588, "BSTAR": 0.0006157243, "MEAN_MOTION_DOT": 1.066e-05, "MEAN_MOTION_DDOT": 0}, "tle": {"line1": "1 29819U 99025DM  25344.48544741  .00001066  00000+0  61572-3 0  9995", "line2": "2 29819  98.7315 328.3204 0191496  73.3597  45.7041 14.02190868965886"}}, "geometry": {"type": "Point", "coordinates": [-12.210839738564234, -63.96951065092611]}}]}